0 COSMOS 2392
1 27470U 02037A   13282.09775807 -.00000244  00000-0 -16762-2 0  7489
2 27470 063.4372 326.2027 0382287 351.0438 031.9737 12.06773791494070
0 COSMOS 2392
1 27470U 02037A   13283.44568760 -.00000283  00000-0 -20371-2 0  7492
2 27470 063.4370 323.5120 0382350 351.0427 127.8900 12.06773763494235
0 COSMOS 2392
1 27470U 02037A   13284.53056885 -.00000306  00000-0 -22435-2 0  7504
2 27470 063.4368 321.3463 0382423 351.0408 161.0263 12.06773583494364
0 COSMOS 2392
1 27470U 02037A   13286.07906477 -.00000308  00000-0 -22680-2 0  7511
2 27470 063.4365 318.2551 0382494 351.0389 048.2810 12.06773104494554
0 COSMOS 2392
1 27470U 02037A   13287.16009249 -.00000318  00000-0 -23554-2 0  7526
2 27470 063.4368 316.0984 0382374 351.0355 064.6766 12.06772817494689
0 COSMOS 2392
1 27470U 02037A   13288.05865881 -.00000050  00000-0  10000-3 0  7533
2 27470 063.4414 314.3076 0381546 350.9766 008.4509 12.06772684494782
0 COSMOS 2392
1 27470U 02037A   13289.15211645 -.00000259  00000-0 -18150-2 0  7544
2 27470 063.4360 312.1200 0382667 351.0334 078.7859 12.06770861494924
0 COSMOS 2392
1 27470U 02037A   13290.50136959 -.00000194  00000-0 -12177-2 0  7551
2 27470 063.4358 309.4263 0382715 351.0324 180.4503 12.06769590495084
0 COSMOS 2392
1 27470U 02037A   13291.73311031 -.00000128  00000-0 -61351-3 0  7560
2 27470 063.4359 306.9673 0382817 351.0302 131.5940 12.06768498495236
0 COSMOS 2392
1 27470U 02037A   13293.12674494 -.00000190  00000-0 -11825-2 0  7570
2 27470 063.4364 304.1864 0382777 351.0234 066.0567 12.06768875495408
0 COSMOS 2392
1 27470U 02037A   13294.13054394 -.00000132  00000-0 -65185-3 0  7589
2 27470 063.4363 302.1825 0382847 351.0224 106.9291 12.06768055495520
0 COSMOS 2392
1 27470U 02037A   13295.47304140  .00000060  00000-0  11046-2 0  7599
2 27470 063.4361 299.5009 0383141 351.0307 179.2260 12.06765920495685
